[{"OBJECT_NAME":"SL-14 R/B","OBJECT_ID":"1986-006B","EPOCH":"2026-03-26T09:54:00.737856","MEAN_MOTION":14.86839885,"ECCENTRICITY":0.0075621,"INCLINATION":82.5247,"RA_OF_ASC_NODE":243.9941,"ARG_OF_PERICENTER":216.3804,"MEAN_ANOMALY":143.2261,"EPHEMERIS_TYPE":0,"CLASSIFICATION_TYPE":"U","NORAD_CAT_ID":16496,"ELEMENT_SET_NO":999,"REV_AT_EPOCH":15169,"BSTAR":8.9795e-5,"MEAN_MOTION_DOT":8.69e-6,"MEAN_MOTION_DDOT":0},{"OBJECT_NAME":"COSMOS 1743","OBJECT_ID":"1986-034A","EPOCH":"2026-03-26T09:25:12.724032","MEAN_MOTION":15.59891046,"ECCENTRICITY":0.0003767,"INCLINATION":82.5302,"RA_OF_ASC_NODE":56.2819,"ARG_OF_PERICENTER":178.7277,"MEAN_ANOMALY":181.399,"EPHEMERIS_TYPE":0,"CLASSIFICATION_TYPE":"U","NORAD_CAT_ID":16719,"ELEMENT_SET_NO":999,"REV_AT_EPOCH":18285,"BSTAR":0.00050143,"MEAN_MOTION_DOT":0.00040496,"MEAN_MOTION_DDOT":0},{"OBJECT_NAME":"SL-14 R/B","OBJECT_ID":"1986-046B","EPOCH":"2026-03-26T09:02:17.619648","MEAN_MOTION":14.85605893,"ECCENTRICITY":0.0023339,"INCLINATION":82.4798,"RA_OF_ASC_NODE":64.4102,"ARG_OF_PERICENTER":169.0401,"MEAN_ANOMALY":191.1329,"EPHEMERIS_TYPE":0,"CLASSIFICATION_TYPE":"U","NORAD_CAT_ID":16792,"ELEMENT_SET_NO":999,"REV_AT_EPOCH":12888,"BSTAR":5.3675e-5,"MEAN_MOTION_DOT":4.91e-6,"MEAN_MOTION_DDOT":0},{"OBJECT_NAME":"SL-14 R/B","OBJECT_ID":"1986-055B","EPOCH":"2026-03-26T10:46:58.771776","MEAN_MOTION":14.85656958,"ECCENTRICITY":0.0017314,"INCLINATION":82.5173,"RA_OF_ASC_NODE":110.9177,"ARG_OF_PERICENTER":277.375,"MEAN_ANOMALY":199.4452,"EPHEMERIS_TYPE":0,"CLASSIFICATION_TYPE":"U","NORAD_CAT_ID":16882,"ELEMENT_SET_NO":999,"REV_AT_EPOCH":12185,"BSTAR":4.7073e-5,"MEAN_MOTION_DOT":4.33e-6,"MEAN_MOTION_DDOT":0},{"OBJECT_NAME":"AJISAI (EGS)","OBJECT_ID":"1986-061A","EPOCH":"2026-03-26T12:11:36.156768","MEAN_MOTION":12.44515624,"ECCENTRICITY":0.0011329,"INCLINATION":50.0107,"RA_OF_ASC_NODE":41.6295,"ARG_OF_PERICENTER":330.3501,"MEAN_ANOMALY":136.7077,"EPHEMERIS_TYPE":0,"CLASSIFICATION_TYPE":"U","NORAD_CAT_ID":16908,"ELEMENT_SET_NO":999,"REV_AT_EPOCH":47009,"BSTAR":-2.0235e-5,"MEAN_MOTION_DOT":-1.0e-6,"MEAN_MOTION_DDOT":0},{"OBJECT_NAME":"SL-14 R/B","OBJECT_ID":"1987-024B","EPOCH":"2026-03-26T09:41:37.656384","MEAN_MOTION":14.86147446,"ECCENTRICITY":0.0017592,"INCLINATION":82.525,"RA_OF_ASC_NODE":77.0491,"ARG_OF_PERICENTER":200.7194,"MEAN_ANOMALY":159.3312,"EPHEMERIS_TYPE":0,"CLASSIFICATION_TYPE":"U","NORAD_CAT_ID":17567,"ELEMENT_SET_NO":999,"REV_AT_EPOCH":9061,"BSTAR":5.2728e-5,"MEAN_MOTION_DOT":4.88e-6,"MEAN_MOTION_DDOT":0},{"OBJECT_NAME":"COSMOS 1833","OBJECT_ID":"1987-027A","EPOCH":"2026-03-26T06:48:14.882112","MEAN_MOTION":14.13048683,"ECCENTRICITY":0.0023399,"INCLINATION":70.9176,"RA_OF_ASC_NODE":291.1414,"ARG_OF_PERICENTER":190.2449,"MEAN_ANOMALY":169.8199,"EPHEMERIS_TYPE":0,"CLASSIFICATION_TYPE":"U","NORAD_CAT_ID":17589,"ELEMENT_SET_NO":999,"REV_AT_EPOCH":1266,"BSTAR":-0.00012309,"MEAN_MOTION_DOT":-2.79e-6,"MEAN_MOTION_DDOT":0},{"OBJECT_NAME":"SL-16 R/B","OBJECT_ID":"1987-027B","EPOCH":"2026-03-26T11:47:35.275200","MEAN_MOTION":14.17165781,"ECCENTRICITY":0.0002851,"INCLINATION":71.0012,"RA_OF_ASC_NODE":241.086,"ARG_OF_PERICENTER":102.012,"MEAN_ANOMALY":258.1323,"EPHEMERIS_TYPE":0,"CLASSIFICATION_TYPE":"U","NORAD_CAT_ID":17590,"ELEMENT_SET_NO":999,"REV_AT_EPOCH":1772,"BSTAR":-5.7704e-5,"MEAN_MOTION_DOT":-1.64e-6,"MEAN_MOTION_DDOT":0},{"OBJECT_NAME":"SL-14 R/B","OBJECT_ID":"1987-038B","EPOCH":"2026-03-26T13:00:45.518400","MEAN_MOTION":14.85383726,"ECCENTRICITY":0.0020708,"INCLINATION":82.4978,"RA_OF_ASC_NODE":280.9277,"ARG_OF_PERICENTER":107.6614,"MEAN_ANOMALY":252.6866,"EPHEMERIS_TYPE":0,"CLASSIFICATION_TYPE":"U","NORAD_CAT_ID":17912,"ELEMENT_SET_NO":999,"REV_AT_EPOCH":8173,"BSTAR":4.9505e-5,"MEAN_MOTION_DOT":4.52e-6,"MEAN_MOTION_DDOT":0},{"OBJECT_NAME":"COSMOS 1844","OBJECT_ID":"1987-041A","EPOCH":"2026-03-26T12:18:58.488480","MEAN_MOTION":14.14554711,"ECCENTRICITY":0.00309,"INCLINATION":70.9013,"RA_OF_ASC_NODE":358.6917,"ARG_OF_PERICENTER":353.3514,"MEAN_ANOMALY":6.7193,"EPHEMERIS_TYPE":0,"CLASSIFICATION_TYPE":"U","NORAD_CAT_ID":17973,"ELEMENT_SET_NO":999,"REV_AT_EPOCH":596,"BSTAR":0.00019077,"MEAN_MOTION_DOT":3.2e-6,"MEAN_MOTION_DDOT":0},{"OBJECT_NAME":"SL-14 R/B","OBJECT_ID":"1987-055B","EPOCH":"2026-03-26T02:41:14.270208","MEAN_MOTION":14.85645523,"ECCENTRICITY":0.00196984,"INCLINATION":82.5012,"RA_OF_ASC_NODE":333.5567,"ARG_OF_PERICENTER":322.9634,"MEAN_ANOMALY":37.0221,"EPHEMERIS_TYPE":0,"CLASSIFICATION_TYPE":"U","NORAD_CAT_ID":18153,"ELEMENT_SET_NO":999,"REV_AT_EPOCH":7237,"BSTAR":4.5892627e-5,"MEAN_MOTION_DOT":4.23e-6,"MEAN_MOTION_DDOT":0},{"OBJECT_NAME":"COSMOS 1867","OBJECT_ID":"1987-060A","EPOCH":"2026-03-26T11:41:57.764832","MEAN_MOTION":14.31505508,"ECCENTRICITY":0.0014766,"INCLINATION":65.009,"RA_OF_ASC_NODE":259.6607,"ARG_OF_PERICENTER":279.6396,"MEAN_ANOMALY":80.302,"EPHEMERIS_TYPE":0,"CLASSIFICATION_TYPE":"U","NORAD_CAT_ID":18187,"ELEMENT_SET_NO":999,"REV_AT_EPOCH":2234,"BSTAR":3.1751e-5,"MEAN_MOTION_DOT":-1.6e-7,"MEAN_MOTION_DDOT":0},{"OBJECT_NAME":"SL-14 R/B","OBJECT_ID":"1988-001B","EPOCH":"2026-03-26T07:27:10.320768","MEAN_MOTION":14.85545719,"ECCENTRICITY":0.0018117,"INCLINATION":82.5162,"RA_OF_ASC_NODE":179.7326,"ARG_OF_PERICENTER":178.6706,"MEAN_ANOMALY":181.4561,"EPHEMERIS_TYPE":0,"CLASSIFICATION_TYPE":"U","NORAD_CAT_ID":18749,"ELEMENT_SET_NO":999,"REV_AT_EPOCH":4449,"BSTAR":5.2827e-5,"MEAN_MOTION_DOT":4.82e-6,"MEAN_MOTION_DDOT":0},{"OBJECT_NAME":"COSMOS 1933","OBJECT_ID":"1988-020A","EPOCH":"2026-03-26T09:37:09.940800","MEAN_MOTION":15.18137863,"ECCENTRICITY":0.0005104,"INCLINATION":82.512,"RA_OF_ASC_NODE":234.3737,"ARG_OF_PERICENTER":131.8407,"MEAN_ANOMALY":228.3263,"EPHEMERIS_TYPE":0,"CLASSIFICATION_TYPE":"U","NORAD_CAT_ID":18958,"ELEMENT_SET_NO":999,"REV_AT_EPOCH":5276,"BSTAR":0.00020426,"MEAN_MOTION_DOT":4.199e-5,"MEAN_MOTION_DDOT":0},{"OBJECT_NAME":"SL-3 R/B","OBJECT_ID":"1988-032B","EPOCH":"2026-03-26T10:53:23.929152","MEAN_MOTION":15.20088296,"ECCENTRICITY":0.0026082,"INCLINATION":97.5213,"RA_OF_ASC_NODE":68.65,"ARG_OF_PERICENTER":171.418,"MEAN_ANOMALY":188.7506,"EPHEMERIS_TYPE":0,"CLASSIFICATION_TYPE":"U","NORAD_CAT_ID":19046,"ELEMENT_SET_NO":999,"REV_AT_EPOCH":5465,"BSTAR":0.00021434,"MEAN_MOTION_DOT":4.598e-5,"MEAN_MOTION_DDOT":0},{"OBJECT_NAME":"SL-16 R/B","OBJECT_ID":"1988-039B","EPOCH":"2026-03-26T07:51:47.250144","MEAN_MOTION":14.19618237,"ECCENTRICITY":0.0023556,"INCLINATION":71.0162,"RA_OF_ASC_NODE":33.3648,"ARG_OF_PERICENTER":310.4607,"MEAN_ANOMALY":49.4464,"EPHEMERIS_TYPE":0,"CLASSIFICATION_TYPE":"U","NORAD_CAT_ID":19120,"ELEMENT_SET_NO":999,"REV_AT_EPOCH":96074,"BSTAR":8.013e-5,"MEAN_MOTION_DOT":1.21e-6,"MEAN_MOTION_DDOT":0},{"OBJECT_NAME":"COSMOS 1953","OBJECT_ID":"1988-050A","EPOCH":"2026-03-26T02:54:38.500416","MEAN_MOTION":15.28777394,"ECCENTRICITY":0.00125013,"INCLINATION":82.508,"RA_OF_ASC_NODE":141.7191,"ARG_OF_PERICENTER":71.3179,"MEAN_ANOMALY":288.9416,"EPHEMERIS_TYPE":0,"CLASSIFICATION_TYPE":"U","NORAD_CAT_ID":19210,"ELEMENT_SET_NO":999,"REV_AT_EPOCH":4029,"BSTAR":0.0002107321,"MEAN_MOTION_DOT":5.939e-5,"MEAN_MOTION_DDOT":0}]
